start=new Date('2021-10-18T00:00:00.000Z').valueOf();
sats=[{"GP_ID":"187444897","PERIAPSIS":"546.427","NORAD_CAT_ID":"46327","MEAN_ELEMENT_THEORY":"SGP4","MEAN_MOTION":"15.06395540","MEAN_MOTION_DOT":"0.00001759","MEAN_ANOMALY":"262.2316","EPHEMERIS_TYPE":"0","FILE":"3168566","ARG_OF_PERICENTER":"97.8805","DECAY_DATE":null,"EPOCH":"2021-10-17T17:40:09.468480","ECCENTRICITY":"0.00011560","APOAPSIS":"548.028","OBJECT_ID":"2020-062C","CLASSIFICATION_TYPE":"U","INCLINATION":"53.0565","OBJECT_NAME":"STARLINK-1673","COUNTRY_CODE":"US","LAUNCH_DATE":"2020-09-03","TIME_SYSTEM":"UTC","REF_FRAME":"TEME","TLE_LINE1":"1 46327U 20062C   21290.73622070  .00001759  00000-0  13699-3 0  9996","BSTAR":"0.00013699000000","TLE_LINE2":"2 46327  53.0565  17.0530 0001156  97.8805 262.2316 15.06395540 62552","PERIOD":"95.592","CENTER_NAME":"EARTH","SITE":"AFETR","SEMIMAJOR_AXIS":"6925.362","MEAN_MOTION_DDOT":"0.0000000000000","REV_AT_EPOCH":"6255","OBJECT_TYPE":"PAYLOAD","RA_OF_ASC_NODE":"17.0530","ELEMENT_SET_NO":"999","RCS_SIZE":"LARGE"},{"MEAN_MOTION":"15.06378480","GP_ID":"187445647","PERIAPSIS":"546.447","NORAD_CAT_ID":"46328","MEAN_ELEMENT_THEORY":"SGP4","OBJECT_ID":"2020-062D","APOAPSIS":"548.112","ECCENTRICITY":"0.00012020","EPOCH":"2021-10-17T04:26:41.114112","DECAY_DATE":null,"FILE":"3168566","ARG_OF_PERICENTER":"100.3870","MEAN_ANOMALY":"259.7255","EPHEMERIS_TYPE":"0","MEAN_MOTION_DOT":"0.00002001","INCLINATION":"53.0558","CLASSIFICATION_TYPE":"U","LAUNCH_DATE":"2020-09-03","COUNTRY_CODE":"US","OBJECT_NAME":"STARLINK-1686","SITE":"AFETR","PERIOD":"95.594","CENTER_NAME":"EARTH","TLE_LINE2":"2 46328  53.0558 359.5210 0001202 100.3870 259.7255 15.06378480 62757","BSTAR":"0.00015326000000","TLE_LINE1":"1 46328U 20062D   21290.18519808  .00002001  00000-0  15326-3 0  9990","REF_FRAME":"TEME","TIME_SYSTEM":"UTC","SEMIMAJOR_AXIS":"6925.415","OBJECT_TYPE":"PAYLOAD","RA_OF_ASC_NODE":"359.5210","REV_AT_EPOCH":"6275","MEAN_MOTION_DDOT":"0.0000000000000","RCS_SIZE":"LARGE","ELEMENT_SET_NO":"999"},{"ELEMENT_SET_NO":"999","RCS_SIZE":"LARGE","MEAN_MOTION_DDOT":"0.0000000000000","REV_AT_EPOCH":"6275","OBJECT_TYPE":"PAYLOAD","RA_OF_ASC_NODE":"359.3664","SEMIMAJOR_AXIS":"6925.409","REF_FRAME":"TEME","TIME_SYSTEM":"UTC","BSTAR":"0.00013059000000","TLE_LINE1":"1 46329U 20062E   21290.21836589  .00001663  00000-0  13059-3 0  9997","PERIOD":"95.593","CENTER_NAME":"EARTH","TLE_LINE2":"2 46329  53.0558 359.3664 0001315  87.5729 272.5410 15.06380296 62757","SITE":"AFETR","COUNTRY_CODE":"US","OBJECT_NAME":"STARLINK-1695","LAUNCH_DATE":"2020-09-03","CLASSIFICATION_TYPE":"U","INCLINATION":"53.0558","EPHEMERIS_TYPE":"0","MEAN_ANOMALY":"272.5410","MEAN_MOTION_DOT":"0.00001663","DECAY_DATE":null,"ARG_OF_PERICENTER":"87.5729","FILE":"3168566","APOAPSIS":"548.185","ECCENTRICITY":"0.00013150","EPOCH":"2021-10-17T05:14:26.812896","OBJECT_ID":"2020-062E","GP_ID":"187444395","NORAD_CAT_ID":"46329","PERIAPSIS":"546.363","MEAN_ELEMENT_THEORY":"SGP4","MEAN_MOTION":"15.06380296"},{"GP_ID":"187444645","NORAD_CAT_ID":"46330","PERIAPSIS":"546.395","MEAN_ELEMENT_THEORY":"SGP4","MEAN_MOTION":"15.06390266","MEAN_MOTION_DOT":"0.00001855","MEAN_ANOMALY":"261.9531","EPHEMERIS_TYPE":"0","FILE":"3168566","ARG_OF_PERICENTER":"98.1597","DECAY_DATE":null,"ECCENTRICITY":"0.00012250","EPOCH":"2021-10-17T04:58:30.053856","APOAPSIS":"548.092","OBJECT_ID":"2020-062F","CLASSIFICATION_TYPE":"U","INCLINATION":"53.0552","OBJECT_NAME":"STARLINK-1710","COUNTRY_CODE":"US","LAUNCH_DATE":"2020-09-03","TIME_SYSTEM":"UTC","REF_FRAME":"TEME","TLE_LINE1":"1 46330U 20062F   21290.20729229  .00001855  00000-0  14340-3 0  9997","BSTAR":"0.00014340000000","TLE_LINE2":"2 46330  53.0552 359.4233 0001225  98.1597 261.9531 15.06390266 62762","CENTER_NAME":"EARTH","PERIOD":"95.593","SITE":"AFETR","SEMIMAJOR_AXIS":"6925.378","MEAN_MOTION_DDOT":"0.0000000000000","REV_AT_EPOCH":"6276","OBJECT_TYPE":"PAYLOAD","RA_OF_ASC_NODE":"359.4233","ELEMENT_SET_NO":"999","RCS_SIZE":"LARGE"},{"MEAN_MOTION":"15.06390076","GP_ID":"187445397","PERIAPSIS":"546.310","NORAD_CAT_ID":"46331","MEAN_ELEMENT_THEORY":"SGP4","OBJECT_ID":"2020-062G","APOAPSIS":"548.178","ECCENTRICITY":"0.00013490","EPOCH":"2021-10-16T23:26:45.557952","DECAY_DATE":null,"FILE":"3168566","ARG_OF_PERICENTER":"91.9801","MEAN_ANOMALY":"268.1343","EPHEMERIS_TYPE":"0","MEAN_MOTION_DOT":"0.00002183","INCLINATION":"53.0565","CLASSIFICATION_TYPE":"U","LAUNCH_DATE":"2020-09-03","COUNTRY_CODE":"US","OBJECT_NAME":"STARLINK-1719","SITE":"AFETR","PERIOD":"95.593","CENTER_NAME":"EARTH","TLE_LINE2":"2 46331  53.0565  20.4628 0001349  91.9801 268.1343 15.06390076 62440","BSTAR":"0.00016543000000","TLE_LINE1":"1 46331U 20062G   21289.97691618  .00002183  00000-0  16543-3 0  9992","REF_FRAME":"TEME","TIME_SYSTEM":"UTC","SEMIMAJOR_AXIS":"6925.379","OBJECT_TYPE":"PAYLOAD","RA_OF_ASC_NODE":"20.4628","REV_AT_EPOCH":"6244","MEAN_MOTION_DDOT":"0.0000000000000","RCS_SIZE":"LARGE","ELEMENT_SET_NO":"999"},{"APOAPSIS":"548.245","EPOCH":"2021-10-16T23:42:40.015296","ECCENTRICITY":"0.00014360","OBJECT_ID":"2020-062H","MEAN_ANOMALY":"259.4950","EPHEMERIS_TYPE":"0","MEAN_MOTION_DOT":"-0.00001224","DECAY_DATE":null,"FILE":"3168566","ARG_OF_PERICENTER":"100.6201","MEAN_MOTION":"15.06388039","PERIAPSIS":"546.256","GP_ID":"187445148","MEAN_ELEMENT_THEORY":"SGP4","NORAD_CAT_ID":"46332","LAUNCH_DATE":"2020-09-03","COUNTRY_CODE":"US","OBJECT_NAME":"STARLINK-1721","CLASSIFICATION_TYPE":"U","INCLINATION":"53.0549","SEMIMAJOR_AXIS":"6925.385","CENTER_NAME":"EARTH","PERIOD":"95.593","TLE_LINE2":"2 46332  53.0549  20.4059 0001436 100.6201 259.4950 15.06388039 62443","SITE":"AFETR","REF_FRAME":"TEME","TIME_SYSTEM":"UTC","BSTAR":"-0.00006329400000","TLE_LINE1":"1 46332U 20062H   21289.98796314 -.00001224  00000-0 -63294-4 0  9996","ELEMENT_SET_NO":"999","RCS_SIZE":"LARGE","OBJECT_TYPE":"PAYLOAD","RA_OF_ASC_NODE":"20.4059","MEAN_MOTION_DDOT":"0.0000000000000","REV_AT_EPOCH":"6244"},{"BSTAR":"0.00014074000000","TLE_LINE1":"1 46333U 20062J   21290.26810880  .00001815  00000-0  14074-3 0  9990","REF_FRAME":"TEME","TIME_SYSTEM":"UTC","SITE":"AFETR","PERIOD":"95.593","CENTER_NAME":"EARTH","TLE_LINE2":"2 46333  53.0558  19.1563 0001175  78.5130 281.5991 15.06390348 62484","SEMIMAJOR_AXIS":"6925.378","REV_AT_EPOCH":"6248","MEAN_MOTION_DDOT":"0.0000000000000","OBJECT_TYPE":"PAYLOAD","RA_OF_ASC_NODE":"19.1563","RCS_SIZE":"LARGE","ELEMENT_SET_NO":"999","PERIAPSIS":"546.429","GP_ID":"187443896","NORAD_CAT_ID":"46333","MEAN_ELEMENT_THEORY":"SGP4","MEAN_MOTION":"15.06390348","DECAY_DATE":null,"ARG_OF_PERICENTER":"78.5130","FILE":"3168566","EPHEMERIS_TYPE":"0","MEAN_ANOMALY":"281.5991","MEAN_MOTION_DOT":"0.00001815","OBJECT_ID":"2020-062J","APOAPSIS":"548.057","ECCENTRICITY":"0.00011750","EPOCH":"2021-10-17T06:26:04.600320","INCLINATION":"53.0558","CLASSIFICATION_TYPE":"U","COUNTRY_CODE":"US","OBJECT_NAME":"STARLINK-1723","LAUNCH_DATE":"2020-09-03"},{"RCS_SIZE":"LARGE","ELEMENT_SET_NO":"999","REV_AT_EPOCH":"6276","MEAN_MOTION_DDOT":"0.0000000000000","RA_OF_ASC_NODE":"359.2550","OBJECT_TYPE":"PAYLOAD","SEMIMAJOR_AXIS":"6925.367","TLE_LINE1":"1 46334U 20062K   21290.24321301  .00004524  00000-0  32246-3 0  9995","BSTAR":"0.00032246000000","TIME_SYSTEM":"UTC","REF_FRAME":"TEME","SITE":"AFETR","TLE_LINE2":"2 46334  53.0555 359.2550 0001276 109.8958 250.2168 15.06393852 62767","CENTER_NAME":"EARTH","PERIOD":"95.593","OBJECT_NAME":"STARLINK-1725","COUNTRY_CODE":"US","LAUNCH_DATE":"2020-09-03","INCLINATION":"53.0555","CLASSIFICATION_TYPE":"U","FILE":"3168566","ARG_OF_PERICENTER":"109.8958","DECAY_DATE":null,"MEAN_MOTION_DOT":"0.00004524","MEAN_ANOMALY":"250.2168","EPHEMERIS_TYPE":"0","OBJECT_ID":"2020-062K","EPOCH":"2021-10-17T05:50:13.604064","ECCENTRICITY":"0.00012760","APOAPSIS":"548.116","PERIAPSIS":"546.349","GP_ID":"187444146","NORAD_CAT_ID":"46334","MEAN_ELEMENT_THEORY":"SGP4","MEAN_MOTION":"15.06393852"},{"GP_ID":"187444898","PERIAPSIS":"546.436","MEAN_ELEMENT_THEORY":"SGP4","NORAD_CAT_ID":"46335","MEAN_MOTION":"15.06386677","MEAN_MOTION_DOT":"0.00003589","MEAN_ANOMALY":"275.7776","EPHEMERIS_TYPE":"0","FILE":"3168566","ARG_OF_PERICENTER":"84.3348","DECAY_DATE":null,"ECCENTRICITY":"0.00011820","EPOCH":"2021-10-17T05:33:00.420768","APOAPSIS":"548.073","OBJECT_ID":"2020-062L","CLASSIFICATION_TYPE":"U","INCLINATION":"53.0548","OBJECT_NAME":"STARLINK-1727","COUNTRY_CODE":"US","LAUNCH_DATE":"2020-09-03","TIME_SYSTEM":"UTC","REF_FRAME":"TEME","TLE_LINE1":"1 46335U 20062L   21290.23125487  .00003589  00000-0  25980-3 0  9999","BSTAR":"0.00025980000000","TLE_LINE2":"2 46335  53.0548  19.3115 0001182  84.3348 275.7776 15.06386677 62480","PERIOD":"95.593","CENTER_NAME":"EARTH","SITE":"AFETR","SEMIMAJOR_AXIS":"6925.389","MEAN_MOTION_DDOT":"0.0000000000000","REV_AT_EPOCH":"6248","OBJECT_TYPE":"PAYLOAD","RA_OF_ASC_NODE":"19.3115","ELEMENT_SET_NO":"999","RCS_SIZE":"LARGE"},{"ELEMENT_SET_NO":"999","RCS_SIZE":"LARGE","MEAN_MOTION_DDOT":"0.0000000000000","REV_AT_EPOCH":"6275","RA_OF_ASC_NODE":"359.3610","OBJECT_TYPE":"PAYLOAD","SEMIMAJOR_AXIS":"6925.364","TIME_SYSTEM":"UTC","REF_FRAME":"TEME","TLE_LINE1":"1 46336U 20062M   21290.22203619  .00004755  00000-0  33792-3 0  9999","BSTAR":"0.00033792000000","TLE_LINE2":"2 46336  53.0562 359.3610 0001249  82.6295 277.4836 15.06395091 62756","PERIOD":"95.592","CENTER_NAME":"EARTH","SITE":"AFETR","OBJECT_NAME":"STARLINK-1738","COUNTRY_CODE":"US","LAUNCH_DATE":"2020-09-03","CLASSIFICATION_TYPE":"U","INCLINATION":"53.0562","MEAN_MOTION_DOT":"0.00004755","MEAN_ANOMALY":"277.4836","EPHEMERIS_TYPE":"0","FILE":"3168566","ARG_OF_PERICENTER":"82.6295","DECAY_DATE":null,"EPOCH":"2021-10-17T05:19:43.926816","ECCENTRICITY":"0.00012490","APOAPSIS":"548.094","OBJECT_ID":"2020-062M","GP_ID":"187445648","PERIAPSIS":"546.364","NORAD_CAT_ID":"46336","MEAN_ELEMENT_THEORY":"SGP4","MEAN_MOTION":"15.06395091"}];
